[{"OBJECT_NAME":"CALSPHERE 1","OBJECT_ID":"1964-063C","EPOCH":"2026-03-05T06:47:51.036576","MEAN_MOTION":13.76491282,"ECCENTRICITY":0.00235226,"INCLINATION":90.2157,"RA_OF_ASC_NODE":69.3499,"ARG_OF_PERICENTER":245.1515,"MEAN_ANOMALY":125.8521,"EPHEMERIS_TYPE":0,"CLASSIFICATION_TYPE":"U","NORAD_CAT_ID":900,"ELEMENT_SET_NO":999,"REV_AT_EPOCH":5713,"BSTAR":0.00082119765,"MEAN_MOTION_DOT":8.14e-6,"MEAN_MOTION_DDOT":0},{"OBJECT_NAME":"CALSPHERE 2","OBJECT_ID":"1964-063E","EPOCH":"2026-03-04T23:08:09.612096","MEAN_MOTION":13.5289146,"ECCENTRICITY":0.00190397,"INCLINATION":90.228,"RA_OF_ASC_NODE":73.3253,"ARG_OF_PERICENTER":164.1297,"MEAN_ANOMALY":227.9306,"EPHEMERIS_TYPE":0,"CLASSIFICATION_TYPE":"U","NORAD_CAT_ID":902,"ELEMENT_SET_NO":999,"REV_AT_EPOCH":84217,"BSTAR":4.0219015e-5,"MEAN_MOTION_DOT":3.6e-7,"MEAN_MOTION_DDOT":0},{"OBJECT_NAME":"LCS 1","OBJECT_ID":"1965-034C","EPOCH":"2026-03-05T06:22:28.197696","MEAN_MOTION":9.89309957,"ECCENTRICITY":0.00131764,"INCLINATION":32.1427,"RA_OF_ASC_NODE":63.7641,"ARG_OF_PERICENTER":114.1594,"MEAN_ANOMALY":246.0282,"EPHEMERIS_TYPE":0,"CLASSIFICATION_TYPE":"U","NORAD_CAT_ID":1361,"ELEMENT_SET_NO":999,"REV_AT_EPOCH":19959,"BSTAR":0.000331164,"MEAN_MOTION_DOT":1.1e-7,"MEAN_MOTION_DDOT":0},{"OBJECT_NAME":"TEMPSAT 1","OBJECT_ID":"1965-065E","EPOCH":"2026-03-04T09:20:36.885984","MEAN_MOTION":13.33588841,"ECCENTRICITY":0.00697386,"INCLINATION":89.9926,"RA_OF_ASC_NODE":212.5891,"ARG_OF_PERICENTER":181.493,"MEAN_ANOMALY":207.1804,"EPHEMERIS_TYPE":0,"CLASSIFICATION_TYPE":"U","NORAD_CAT_ID":1512,"ELEMENT_SET_NO":999,"REV_AT_EPOCH":94608,"BSTAR":5.4419781e-5,"MEAN_MOTION_DOT":3.6e-7,"MEAN_MOTION_DDOT":0},{"OBJECT_NAME":"CALSPHERE 4A","OBJECT_ID":"1965-065H","EPOCH":"2026-03-05T03:16:37.079328","MEAN_MOTION":13.36258268,"ECCENTRICITY":0.00706499,"INCLINATION":89.9041,"RA_OF_ASC_NODE":123.5141,"ARG_OF_PERICENTER":38.9385,"MEAN_ANOMALY":353.804,"EPHEMERIS_TYPE":0,"CLASSIFICATION_TYPE":"U","NORAD_CAT_ID":1520,"ELEMENT_SET_NO":999,"REV_AT_EPOCH":94881,"BSTAR":0.00023552824,"MEAN_MOTION_DOT":1.32e-6,"MEAN_MOTION_DDOT":0},{"OBJECT_NAME":"OPS 5712 (P/L 160)","OBJECT_ID":"1967-053A","EPOCH":"2026-03-05T05:25:16.875264","MEAN_MOTION":14.76095103,"ECCENTRICITY":0.000445,"INCLINATION":69.9168,"RA_OF_ASC_NODE":292.8051,"ARG_OF_PERICENTER":227.5265,"MEAN_ANOMALY":132.5506,"EPHEMERIS_TYPE":0,"CLASSIFICATION_TYPE":"U","NORAD_CAT_ID":2826,"ELEMENT_SET_NO":999,"REV_AT_EPOCH":5088,"BSTAR":0.0013209477,"MEAN_MOTION_DOT":9.065e-5,"MEAN_MOTION_DDOT":0},{"OBJECT_NAME":"OPS 5712 (P/L 153)","OBJECT_ID":"1967-053H","EPOCH":"2026-03-05T03:30:23.736384","MEAN_MOTION":13.9681073,"ECCENTRICITY":0.00090084,"INCLINATION":69.9764,"RA_OF_ASC_NODE":338.3084,"ARG_OF_PERICENTER":314.5596,"MEAN_ANOMALY":45.4774,"EPHEMERIS_TYPE":0,"CLASSIFICATION_TYPE":"U","NORAD_CAT_ID":2874,"ELEMENT_SET_NO":999,"REV_AT_EPOCH":99225,"BSTAR":7.7932518e-5,"MEAN_MOTION_DOT":5.5e-7,"MEAN_MOTION_DDOT":0},{"OBJECT_NAME":"RIGIDSPHERE 2 (LCS 4)","OBJECT_ID":"1971-067E","EPOCH":"2026-03-05T06:52:33.845376","MEAN_MOTION":14.37734327,"ECCENTRICITY":0.00583418,"INCLINATION":87.6271,"RA_OF_ASC_NODE":7.6302,"ARG_OF_PERICENTER":215.9712,"MEAN_ANOMALY":143.7554,"EPHEMERIS_TYPE":0,"CLASSIFICATION_TYPE":"U","NORAD_CAT_ID":5398,"ELEMENT_SET_NO":999,"REV_AT_EPOCH":85895,"BSTAR":0.00034187838,"MEAN_MOTION_DOT":1.066e-5,"MEAN_MOTION_DDOT":0},{"OBJECT_NAME":"COSMOS 2493 (SKRL-756 1)","OBJECT_ID":"2013-078A","EPOCH":"2026-03-05T06:47:30.289344","MEAN_MOTION":15.01534811,"ECCENTRICITY":0.00114135,"INCLINATION":82.4165,"RA_OF_ASC_NODE":2.7953,"ARG_OF_PERICENTER":231.0641,"MEAN_ANOMALY":128.9567,"EPHEMERIS_TYPE":0,"CLASSIFICATION_TYPE":"U","NORAD_CAT_ID":39490,"ELEMENT_SET_NO":999,"REV_AT_EPOCH":66236,"BSTAR":0.00037973923,"MEAN_MOTION_DOT":4.946e-5,"MEAN_MOTION_DDOT":0},{"OBJECT_NAME":"COSMOS 2494 (SKRL-756 2)","OBJECT_ID":"2013-078B","EPOCH":"2026-03-05T06:22:08.018976","MEAN_MOTION":15.04159334,"ECCENTRICITY":0.00154206,"INCLINATION":82.4159,"RA_OF_ASC_NODE":352.6336,"ARG_OF_PERICENTER":191.6834,"MEAN_ANOMALY":168.4036,"EPHEMERIS_TYPE":0,"CLASSIFICATION_TYPE":"U","NORAD_CAT_ID":39491,"ELEMENT_SET_NO":999,"REV_AT_EPOCH":66318,"BSTAR":0.00043416831,"MEAN_MOTION_DOT":6.064e-5,"MEAN_MOTION_DDOT":0}]
