CALSPHERE 1             
1 00900U 64063C   26064.28322959  .00000814  00000+0  82120-3 0  9994
2 00900  90.2157  69.3499 0023522 245.1515 125.8521 13.76491282 57135
CALSPHERE 2             
1 00902U 64063E   26063.96400014  .00000036  00000+0  40219-4 0  9999
2 00902  90.2280  73.3253 0019039 164.1297 227.9306 13.52891460842179
LCS 1                   
1 01361U 65034C   26064.26560414  .00000011  00000+0  33116-3 0  9993
2 01361  32.1427  63.7641 0013176 114.1594 246.0282  9.89309957199598
TEMPSAT 1               
1 01512U 65065E   26063.38931581  .00000036  00000+0  54420-4 0  9993
2 01512  89.9926 212.5891 0069738 181.4930 207.1804 13.33588841946084
CALSPHERE 4A            
1 01520U 65065H   26064.13654027  .00000132  00000+0  23553-3 0  9992
2 01520  89.9041 123.5141 0070649  38.9385 353.8040 13.36258268948817
OPS 5712 (P/L 160)      
1 02826U 67053A   26064.22588976  .00009065  00000+0  13209-2 0  9990
2 02826  69.9168 292.8051 0004450 227.5265 132.5506 14.76095103 50887
OPS 5712 (P/L 153)      
1 02874U 67053H   26064.14610806  .00000055  00000+0  77933-4 0  9998
2 02874  69.9764 338.3084 0009008 314.5596  45.4774 13.96810730992259
RIGIDSPHERE 2 (LCS 4)   
1 05398U 71067E   26064.28650284  .00001066  00000+0  34188-3 0  9998
2 05398  87.6271   7.6302 0058341 215.9712 143.7554 14.37734327858959
COSMOS 2493 (SKRL-756 1)
1 39490U 13078A   26064.28298946  .00004946  00000+0  37974-3 0  9995
2 39490  82.4165   2.7953 0011413 231.0641 128.9567 15.01534811662366
COSMOS 2494 (SKRL-756 2)
1 39491U 13078B   26064.26537059  .00006064  00000+0  43417-3 0  9997
2 39491  82.4159 352.6336 0015420 191.6834 168.4036 15.04159334663186
